SPOT 7                  
1 40053U 14034A   26064.28031016  .00000573  00000+0  12643-3 0  9996
2 40053  98.0755 129.4014 0001316 101.7902 258.3446 14.60854791621961
SKYSAT-B                
1 40072U 14037D   26064.29052428  .00002774  00000+0  31110-3 0  9996
2 40072  98.3726  17.4300 0004210 252.1145 107.9611 14.87705494630511
WORLDVIEW-3 (WV-3)      
1 40115U 14048A   26064.26046501  .00001460  00000+0  17819-3 0  9999
2 40115  97.8641 140.5119 0000453  11.2248 348.8977 14.84823144626480
GAOFEN-2                
1 40118U 14049A   26064.32060185  .00000641  00000+0  90183-4 0  9990
2 40118  98.0235 128.5810 0006737 200.3114 159.7831 14.80761974623868
YAOGAN-21               
1 40143U 14053A   26064.26884286  .00009172  00000+0  37129-3 0  9990
2 40143  97.1621 109.0024 0010162  99.8036 260.4350 15.24851607639110
YAOGAN-22               
1 40275U 14063A   26064.29986978 -.00000012  00000+0  92970-4 0  9992
2 40275 100.7529 213.9166 0006710  67.3998 292.7823 13.15526800546153
ASNARO                  
1 40298U 14070A   26064.24803907  .00015338  00000+0  72045-3 0  9996
2 40298  97.3523 143.1272 0007325 155.5019 204.6565 15.19682590628221
YAOGAN-24               
1 40310U 14072A   26064.30501877  .00000926  00000+0  14128-3 0  9996
2 40310  98.1297 200.8708 0012156 233.5342 126.4747 14.76217744608398
CBERS 4                 
1 40336U 14079A   26064.32171674  .00000254  00000+0  10317-3 0  9991
2 40336  98.3492 124.4744 0000767  56.5819 303.5440 14.35411955589057
YAOGAN-26               
1 40362U 14088A   26064.26324057  .00036277  00000+0  82212-3 0  9995
2 40362  97.0666  67.2187 0007219  75.3549 284.8500 15.42980541621650
SMAP                    
1 40376U 15003A   26064.28497435  .00000807  00000+0  16538-3 0  9999
2 40376  98.1311  72.8352 0001279 112.6442 247.4895 14.63332572592428
KOMPSAT-3A              
1 40536U 15014A   26064.26494895  .00026607  00000+0  46353-3 0  9998
2 40536  97.6870  48.4797 0063027 193.5482 166.4079 15.48464450605708
SENTINEL-2A             
1 40697U 15028A   26056.18000490  .00000159  00000+0  76852-4 0  9999
2 40697  98.5024 132.8928 0054368 194.7437 165.2162 14.30192923557712
GAOFEN-8                
1 40701U 15030A   26064.27107587  .00020860  00000+0  48646-3 0  9992
2 40701  97.6927 251.6724 0009331 203.5930 156.4890 15.42225308595418
CARBONITE 1 (CBNT-1)    
1 40718U 15032D   26064.30388911  .00002331  00000+0  29129-3 0  9996
2 40718  97.6453 246.7596 0013299 276.1772  83.7927 14.83191661573945
YAOGAN-27               
1 40878U 15040A   26064.26004406  .00000417  00000+0  12095-2 0  9997
2 40878 100.1094  55.1820 0008920  93.5987 266.6147 13.16066086503990
GAOFEN-9 01             
1 40894U 15047A   26064.34246686  .00001540  00000+0  19598-3 0  9993
2 40894  97.6424 104.6977 0028794 119.4484 240.9609 14.82668810564801
