[{"OBJECT_NAME":"SPOT 7","OBJECT_ID":"2014-034A","EPOCH":"2026-03-05T06:43:38.797824","MEAN_MOTION":14.60854791,"ECCENTRICITY":0.0001316,"INCLINATION":98.0755,"RA_OF_ASC_NODE":129.4014,"ARG_OF_PERICENTER":101.7902,"MEAN_ANOMALY":258.3446,"EPHEMERIS_TYPE":0,"CLASSIFICATION_TYPE":"U","NORAD_CAT_ID":40053,"ELEMENT_SET_NO":999,"REV_AT_EPOCH":62196,"BSTAR":0.0001264269,"MEAN_MOTION_DOT":5.73e-6,"MEAN_MOTION_DDOT":0},{"OBJECT_NAME":"SKYSAT-B","OBJECT_ID":"2014-037D","EPOCH":"2026-03-05T06:58:21.297792","MEAN_MOTION":14.87705494,"ECCENTRICITY":0.00042102,"INCLINATION":98.3726,"RA_OF_ASC_NODE":17.43,"ARG_OF_PERICENTER":252.1145,"MEAN_ANOMALY":107.9611,"EPHEMERIS_TYPE":0,"CLASSIFICATION_TYPE":"U","NORAD_CAT_ID":40072,"ELEMENT_SET_NO":999,"REV_AT_EPOCH":63051,"BSTAR":0.00031109899,"MEAN_MOTION_DOT":2.774e-5,"MEAN_MOTION_DDOT":0},{"OBJECT_NAME":"WORLDVIEW-3 (WV-3)","OBJECT_ID":"2014-048A","EPOCH":"2026-03-05T06:15:04.176864","MEAN_MOTION":14.84823144,"ECCENTRICITY":4.539e-5,"INCLINATION":97.8641,"RA_OF_ASC_NODE":140.5119,"ARG_OF_PERICENTER":11.2248,"MEAN_ANOMALY":348.8977,"EPHEMERIS_TYPE":0,"CLASSIFICATION_TYPE":"U","NORAD_CAT_ID":40115,"ELEMENT_SET_NO":999,"REV_AT_EPOCH":62648,"BSTAR":0.00017819228,"MEAN_MOTION_DOT":1.46e-5,"MEAN_MOTION_DDOT":0},{"OBJECT_NAME":"GAOFEN-2","OBJECT_ID":"2014-049A","EPOCH":"2026-03-05T07:41:39.999840","MEAN_MOTION":14.80761974,"ECCENTRICITY":0.00067371,"INCLINATION":98.0235,"RA_OF_ASC_NODE":128.581,"ARG_OF_PERICENTER":200.3114,"MEAN_ANOMALY":159.7831,"EPHEMERIS_TYPE":0,"CLASSIFICATION_TYPE":"U","NORAD_CAT_ID":40118,"ELEMENT_SET_NO":999,"REV_AT_EPOCH":62386,"BSTAR":9.0182963e-5,"MEAN_MOTION_DOT":6.41e-6,"MEAN_MOTION_DDOT":0},{"OBJECT_NAME":"YAOGAN-21","OBJECT_ID":"2014-053A","EPOCH":"2026-03-05T06:27:08.023104","MEAN_MOTION":15.24851607,"ECCENTRICITY":0.0010162,"INCLINATION":97.1621,"RA_OF_ASC_NODE":109.0024,"ARG_OF_PERICENTER":99.8036,"MEAN_ANOMALY":260.435,"EPHEMERIS_TYPE":0,"CLASSIFICATION_TYPE":"U","NORAD_CAT_ID":40143,"ELEMENT_SET_NO":999,"REV_AT_EPOCH":63911,"BSTAR":0.00037129101,"MEAN_MOTION_DOT":9.172e-5,"MEAN_MOTION_DDOT":0},{"OBJECT_NAME":"YAOGAN-22","OBJECT_ID":"2014-063A","EPOCH":"2026-03-05T07:11:48.748992","MEAN_MOTION":13.155268,"ECCENTRICITY":0.00067107,"INCLINATION":100.7529,"RA_OF_ASC_NODE":213.9166,"ARG_OF_PERICENTER":67.3998,"MEAN_ANOMALY":292.7823,"EPHEMERIS_TYPE":0,"CLASSIFICATION_TYPE":"U","NORAD_CAT_ID":40275,"ELEMENT_SET_NO":999,"REV_AT_EPOCH":54615,"BSTAR":9.2969963e-5,"MEAN_MOTION_DOT":-1.2e-7,"MEAN_MOTION_DDOT":0},{"OBJECT_NAME":"ASNARO","OBJECT_ID":"2014-070A","EPOCH":"2026-03-05T05:57:10.575648","MEAN_MOTION":15.1968259,"ECCENTRICITY":0.00073256,"INCLINATION":97.3523,"RA_OF_ASC_NODE":143.1272,"ARG_OF_PERICENTER":155.5019,"MEAN_ANOMALY":204.6565,"EPHEMERIS_TYPE":0,"CLASSIFICATION_TYPE":"U","NORAD_CAT_ID":40298,"ELEMENT_SET_NO":999,"REV_AT_EPOCH":62822,"BSTAR":0.00072044693,"MEAN_MOTION_DOT":0.00015338,"MEAN_MOTION_DDOT":0},{"OBJECT_NAME":"YAOGAN-24","OBJECT_ID":"2014-072A","EPOCH":"2026-03-05T07:19:13.621728","MEAN_MOTION":14.76217744,"ECCENTRICITY":0.00121564,"INCLINATION":98.1297,"RA_OF_ASC_NODE":200.8708,"ARG_OF_PERICENTER":233.5342,"MEAN_ANOMALY":126.4747,"EPHEMERIS_TYPE":0,"CLASSIFICATION_TYPE":"U","NORAD_CAT_ID":40310,"ELEMENT_SET_NO":999,"REV_AT_EPOCH":60839,"BSTAR":0.00014127769,"MEAN_MOTION_DOT":9.26e-6,"MEAN_MOTION_DDOT":0},{"OBJECT_NAME":"CBERS 4","OBJECT_ID":"2014-079A","EPOCH":"2026-03-05T07:43:16.326336","MEAN_MOTION":14.35411955,"ECCENTRICITY":7.673e-5,"INCLINATION":98.3492,"RA_OF_ASC_NODE":124.4744,"ARG_OF_PERICENTER":56.5819,"MEAN_ANOMALY":303.544,"EPHEMERIS_TYPE":0,"CLASSIFICATION_TYPE":"U","NORAD_CAT_ID":40336,"ELEMENT_SET_NO":999,"REV_AT_EPOCH":58905,"BSTAR":0.0001031736,"MEAN_MOTION_DOT":2.54e-6,"MEAN_MOTION_DDOT":0},{"OBJECT_NAME":"YAOGAN-26","OBJECT_ID":"2014-088A","EPOCH":"2026-03-05T06:19:03.985248","MEAN_MOTION":15.42980541,"ECCENTRICITY":0.00072192,"INCLINATION":97.0666,"RA_OF_ASC_NODE":67.2187,"ARG_OF_PERICENTER":75.3549,"MEAN_ANOMALY":284.85,"EPHEMERIS_TYPE":0,"CLASSIFICATION_TYPE":"U","NORAD_CAT_ID":40362,"ELEMENT_SET_NO":999,"REV_AT_EPOCH":62165,"BSTAR":0.00082212297,"MEAN_MOTION_DOT":0.00036277,"MEAN_MOTION_DDOT":0},{"OBJECT_NAME":"SMAP","OBJECT_ID":"2015-003A","EPOCH":"2026-03-05T06:50:21.783840","MEAN_MOTION":14.63332572,"ECCENTRICITY":0.0001279,"INCLINATION":98.1311,"RA_OF_ASC_NODE":72.8352,"ARG_OF_PERICENTER":112.6442,"MEAN_ANOMALY":247.4895,"EPHEMERIS_TYPE":0,"CLASSIFICATION_TYPE":"U","NORAD_CAT_ID":40376,"ELEMENT_SET_NO":999,"REV_AT_EPOCH":59242,"BSTAR":0.00016537657,"MEAN_MOTION_DOT":8.07e-6,"MEAN_MOTION_DDOT":0},{"OBJECT_NAME":"KOMPSAT-3A","OBJECT_ID":"2015-014A","EPOCH":"2026-03-05T06:21:31.589280","MEAN_MOTION":15.4846445,"ECCENTRICITY":0.00630276,"INCLINATION":97.687,"RA_OF_ASC_NODE":48.4797,"ARG_OF_PERICENTER":193.5482,"MEAN_ANOMALY":166.4079,"EPHEMERIS_TYPE":0,"CLASSIFICATION_TYPE":"U","NORAD_CAT_ID":40536,"ELEMENT_SET_NO":999,"REV_AT_EPOCH":60570,"BSTAR":0.00046353231,"MEAN_MOTION_DOT":0.00026607,"MEAN_MOTION_DDOT":0},{"OBJECT_NAME":"SENTINEL-2A","OBJECT_ID":"2015-028A","EPOCH":"2026-02-25T04:19:12.423360","MEAN_MOTION":14.30192923,"ECCENTRICITY":0.00543683,"INCLINATION":98.5024,"RA_OF_ASC_NODE":132.8928,"ARG_OF_PERICENTER":194.7437,"MEAN_ANOMALY":165.2162,"EPHEMERIS_TYPE":0,"CLASSIFICATION_TYPE":"U","NORAD_CAT_ID":40697,"ELEMENT_SET_NO":999,"REV_AT_EPOCH":55771,"BSTAR":7.6852184e-5,"MEAN_MOTION_DOT":1.59e-6,"MEAN_MOTION_DDOT":0},{"OBJECT_NAME":"GAOFEN-8","OBJECT_ID":"2015-030A","EPOCH":"2026-03-05T06:30:20.955168","MEAN_MOTION":15.42225308,"ECCENTRICITY":0.00093312,"INCLINATION":97.6927,"RA_OF_ASC_NODE":251.6724,"ARG_OF_PERICENTER":203.593,"MEAN_ANOMALY":156.489,"EPHEMERIS_TYPE":0,"CLASSIFICATION_TYPE":"U","NORAD_CAT_ID":40701,"ELEMENT_SET_NO":999,"REV_AT_EPOCH":59541,"BSTAR":0.00048646369,"MEAN_MOTION_DOT":0.0002086,"MEAN_MOTION_DDOT":0},{"OBJECT_NAME":"CARBONITE 1 (CBNT-1)","OBJECT_ID":"2015-032D","EPOCH":"2026-03-05T07:17:36.019104","MEAN_MOTION":14.83191661,"ECCENTRICITY":0.00132996,"INCLINATION":97.6453,"RA_OF_ASC_NODE":246.7596,"ARG_OF_PERICENTER":276.1772,"MEAN_ANOMALY":83.7927,"EPHEMERIS_TYPE":0,"CLASSIFICATION_TYPE":"U","NORAD_CAT_ID":40718,"ELEMENT_SET_NO":999,"REV_AT_EPOCH":57394,"BSTAR":0.0002912891,"MEAN_MOTION_DOT":2.331e-5,"MEAN_MOTION_DDOT":0},{"OBJECT_NAME":"YAOGAN-27","OBJECT_ID":"2015-040A","EPOCH":"2026-03-05T06:14:27.806784","MEAN_MOTION":13.16066086,"ECCENTRICITY":0.00089208,"INCLINATION":100.1094,"RA_OF_ASC_NODE":55.182,"ARG_OF_PERICENTER":93.5987,"MEAN_ANOMALY":266.6147,"EPHEMERIS_TYPE":0,"CLASSIFICATION_TYPE":"U","NORAD_CAT_ID":40878,"ELEMENT_SET_NO":999,"REV_AT_EPOCH":50399,"BSTAR":0.0012095076,"MEAN_MOTION_DOT":4.17e-6,"MEAN_MOTION_DDOT":0},{"OBJECT_NAME":"GAOFEN-9 01","OBJECT_ID":"2015-047A","EPOCH":"2026-03-05T08:13:09.136704","MEAN_MOTION":14.8266881,"ECCENTRICITY":0.00287942,"INCLINATION":97.6424,"RA_OF_ASC_NODE":104.6977,"ARG_OF_PERICENTER":119.4484,"MEAN_ANOMALY":240.9609,"EPHEMERIS_TYPE":0,"CLASSIFICATION_TYPE":"U","NORAD_CAT_ID":40894,"ELEMENT_SET_NO":999,"REV_AT_EPOCH":56480,"BSTAR":0.00019598475,"MEAN_MOTION_DOT":1.54e-5,"MEAN_MOTION_DDOT":0}]
